{"fetched_at":"2026-07-16T06:43:03.373Z","source":"https://celestrak.org/NORAD/elements/gp.php?NAME=JILIN&FORMAT=JSON","constellation":"jilin-1-gaofen","records":[{"OBJECT_NAME":"JILIN-1 GAOFEN 03D51","OBJECT_ID":"2022-155B","EPOCH":"2026-07-15T23:03:58.830912","CLASSIFICATION_TYPE":"U","MEAN_MOTION":15.64924439,"ECCENTRICITY":0.00044224,"INCLINATION":97.6262,"RA_OF_ASC_NODE":344.0456,"ARG_OF_PERICENTER":228.7085,"MEAN_ANOMALY":131.3794,"EPHEMERIS_TYPE":0,"NORAD_CAT_ID":54252,"ELEMENT_SET_NO":999,"REV_AT_EPOCH":20424,"BSTAR":0.00038002396,"MEAN_MOTION_DOT":0.00037146,"MEAN_MOTION_DDOT":0},{"OBJECT_NAME":"JILIN-1 GAOFEN 03D53","OBJECT_ID":"2022-155C","EPOCH":"2026-07-15T22:40:19.962336","CLASSIFICATION_TYPE":"U","MEAN_MOTION":15.54453209,"ECCENTRICITY":0.00048838,"INCLINATION":97.6252,"RA_OF_ASC_NODE":339.2172,"ARG_OF_PERICENTER":247.3009,"MEAN_ANOMALY":112.7728,"EPHEMERIS_TYPE":0,"NORAD_CAT_ID":54253,"ELEMENT_SET_NO":999,"REV_AT_EPOCH":20395,"BSTAR":0.00031522871,"MEAN_MOTION_DOT":0.00020643,"MEAN_MOTION_DDOT":0},{"OBJECT_NAME":"JILIN-1 GAOFEN 03D52","OBJECT_ID":"2022-155E","EPOCH":"2026-07-15T22:49:07.349664","CLASSIFICATION_TYPE":"U","MEAN_MOTION":15.62086728,"ECCENTRICITY":0.00037573,"INCLINATION":97.6235,"RA_OF_ASC_NODE":342.2417,"ARG_OF_PERICENTER":243.4352,"MEAN_ANOMALY":116.652,"EPHEMERIS_TYPE":0,"NORAD_CAT_ID":54255,"ELEMENT_SET_NO":999,"REV_AT_EPOCH":20419,"BSTAR":0.00037116966,"MEAN_MOTION_DOT":0.00032441,"MEAN_MOTION_DDOT":0},{"OBJECT_NAME":"JILIN-1 GAOFEN 03D50","OBJECT_ID":"2022-167J","EPOCH":"2026-07-15T22:41:34.475424","CLASSIFICATION_TYPE":"U","MEAN_MOTION":15.35070595,"ECCENTRICITY":0.00051442,"INCLINATION":97.6852,"RA_OF_ASC_NODE":5.9788,"ARG_OF_PERICENTER":19.2057,"MEAN_ANOMALY":340.9379,"EPHEMERIS_TYPE":0,"NORAD_CAT_ID":54690,"ELEMENT_SET_NO":999,"REV_AT_EPOCH":19976,"BSTAR":0.00018021884,"MEAN_MOTION_DOT":0.00006048,"MEAN_MOTION_DDOT":0},{"OBJECT_NAME":"JILIN-1 GAOFEN 03D47","OBJECT_ID":"2022-167L","EPOCH":"2026-07-15T22:47:41.304768","CLASSIFICATION_TYPE":"U","MEAN_MOTION":15.34352215,"ECCENTRICITY":0.00077374,"INCLINATION":97.6949,"RA_OF_ASC_NODE":7.7214,"ARG_OF_PERICENTER":27.0386,"MEAN_ANOMALY":333.1257,"EPHEMERIS_TYPE":0,"NORAD_CAT_ID":54692,"ELEMENT_SET_NO":999,"REV_AT_EPOCH":19975,"BSTAR":0.00017419185,"MEAN_MOTION_DOT":0.00005712,"MEAN_MOTION_DDOT":0},{"OBJECT_NAME":"JILIN-1 GAOFEN 03D49","OBJECT_ID":"2022-167N","EPOCH":"2026-07-15T23:07:35.353632","CLASSIFICATION_TYPE":"U","MEAN_MOTION":15.38052867,"ECCENTRICITY":0.00060035,"INCLINATION":97.6826,"RA_OF_ASC_NODE":8.3958,"ARG_OF_PERICENTER":47.0947,"MEAN_ANOMALY":313.08,"EPHEMERIS_TYPE":0,"NORAD_CAT_ID":54694,"ELEMENT_SET_NO":999,"REV_AT_EPOCH":19991,"BSTAR":0.00018574306,"MEAN_MOTION_DOT":0.00006869,"MEAN_MOTION_DDOT":0},{"OBJECT_NAME":"JILIN-1 GAOFEN 03D48","OBJECT_ID":"2022-167P","EPOCH":"2026-07-15T22:30:19.167840","CLASSIFICATION_TYPE":"U","MEAN_MOTION":15.35801954,"ECCENTRICITY":0.00063834,"INCLINATION":97.6897,"RA_OF_ASC_NODE":7.6929,"ARG_OF_PERICENTER":27.7739,"MEAN_ANOMALY":332.3843,"EPHEMERIS_TYPE":0,"NORAD_CAT_ID":54695,"ELEMENT_SET_NO":999,"REV_AT_EPOCH":19980,"BSTAR":0.00017824615,"MEAN_MOTION_DOT":0.00006124,"MEAN_MOTION_DDOT":0},{"OBJECT_NAME":"JILIN GAOFEN OBJECT A","OBJECT_ID":"2026-080A","EPOCH":"2026-07-15T19:07:28.761024","CLASSIFICATION_TYPE":"U","MEAN_MOTION":15.09203524,"ECCENTRICITY":0.00112093,"INCLINATION":97.6617,"RA_OF_ASC_NODE":272.2751,"ARG_OF_PERICENTER":333.2917,"MEAN_ANOMALY":26.7733,"EPHEMERIS_TYPE":0,"NORAD_CAT_ID":68691,"ELEMENT_SET_NO":999,"REV_AT_EPOCH":1397,"BSTAR":0.00015440087,"MEAN_MOTION_DOT":0.00002392,"MEAN_MOTION_DDOT":0},{"OBJECT_NAME":"JILIN GAOFEN OBJECT B","OBJECT_ID":"2026-080B","EPOCH":"2026-07-15T20:17:14.092800","CLASSIFICATION_TYPE":"U","MEAN_MOTION":15.08903393,"ECCENTRICITY":0.00157279,"INCLINATION":97.6589,"RA_OF_ASC_NODE":272.3366,"ARG_OF_PERICENTER":311.1757,"MEAN_ANOMALY":48.8115,"EPHEMERIS_TYPE":0,"NORAD_CAT_ID":68692,"ELEMENT_SET_NO":999,"REV_AT_EPOCH":1398,"BSTAR":0.00014184689,"MEAN_MOTION_DOT":0.00002177,"MEAN_MOTION_DDOT":0},{"OBJECT_NAME":"JILIN GAOFEN OBJECT C","OBJECT_ID":"2026-080C","EPOCH":"2026-07-15T19:05:49.707744","CLASSIFICATION_TYPE":"U","MEAN_MOTION":15.08902045,"ECCENTRICITY":0.00138416,"INCLINATION":97.6608,"RA_OF_ASC_NODE":272.2598,"ARG_OF_PERICENTER":316.4089,"MEAN_ANOMALY":43.6044,"EPHEMERIS_TYPE":0,"NORAD_CAT_ID":68693,"ELEMENT_SET_NO":999,"REV_AT_EPOCH":1397,"BSTAR":0.00014166497,"MEAN_MOTION_DOT":0.00002173,"MEAN_MOTION_DDOT":0},{"OBJECT_NAME":"JILIN GAOFEN OBJECT D","OBJECT_ID":"2026-080D","EPOCH":"2026-07-15T23:29:22.382592","CLASSIFICATION_TYPE":"U","MEAN_MOTION":15.08962917,"ECCENTRICITY":0.00164266,"INCLINATION":97.6652,"RA_OF_ASC_NODE":272.5443,"ARG_OF_PERICENTER":322.5134,"MEAN_ANOMALY":37.4948,"EPHEMERIS_TYPE":0,"NORAD_CAT_ID":68694,"ELEMENT_SET_NO":999,"REV_AT_EPOCH":1398,"BSTAR":0.00013791067,"MEAN_MOTION_DOT":0.00002118,"MEAN_MOTION_DDOT":0},{"OBJECT_NAME":"JILIN GAOFEN OBJECT E","OBJECT_ID":"2026-080E","EPOCH":"2026-07-15T23:03:02.091168","CLASSIFICATION_TYPE":"U","MEAN_MOTION":15.089235,"ECCENTRICITY":0.00138143,"INCLINATION":97.6633,"RA_OF_ASC_NODE":272.5462,"ARG_OF_PERICENTER":332.975,"MEAN_ANOMALY":27.0758,"EPHEMERIS_TYPE":0,"NORAD_CAT_ID":68695,"ELEMENT_SET_NO":999,"REV_AT_EPOCH":1396,"BSTAR":0.00017891541,"MEAN_MOTION_DOT":0.00002763,"MEAN_MOTION_DDOT":0},{"OBJECT_NAME":"JILIN GAOFEN OBJECT F","OBJECT_ID":"2026-080F","EPOCH":"2026-07-15T23:01:38.213184","CLASSIFICATION_TYPE":"U","MEAN_MOTION":15.08908182,"ECCENTRICITY":0.0012529,"INCLINATION":97.6605,"RA_OF_ASC_NODE":272.5134,"ARG_OF_PERICENTER":335.7755,"MEAN_ANOMALY":24.2882,"EPHEMERIS_TYPE":0,"NORAD_CAT_ID":68696,"ELEMENT_SET_NO":999,"REV_AT_EPOCH":1396,"BSTAR":0.00022975477,"MEAN_MOTION_DOT":0.00003564,"MEAN_MOTION_DDOT":0},{"OBJECT_NAME":"JILIN GAOFEN OBJECT G","OBJECT_ID":"2026-080G","EPOCH":"2026-07-15T22:41:35.893248","CLASSIFICATION_TYPE":"U","MEAN_MOTION":15.08901456,"ECCENTRICITY":0.00146407,"INCLINATION":97.6654,"RA_OF_ASC_NODE":272.5841,"ARG_OF_PERICENTER":332.4805,"MEAN_ANOMALY":27.5647,"EPHEMERIS_TYPE":0,"NORAD_CAT_ID":68697,"ELEMENT_SET_NO":999,"REV_AT_EPOCH":1396,"BSTAR":0.00016897209,"MEAN_MOTION_DOT":0.00002605,"MEAN_MOTION_DDOT":0},{"OBJECT_NAME":"JILIN GAOFEN OBJECT H","OBJECT_ID":"2026-080H","EPOCH":"2026-07-15T21:03:09.782784","CLASSIFICATION_TYPE":"U","MEAN_MOTION":15.0892678,"ECCENTRICITY":0.00136134,"INCLINATION":97.6673,"RA_OF_ASC_NODE":272.4962,"ARG_OF_PERICENTER":330.3688,"MEAN_ANOMALY":29.6768,"EPHEMERIS_TYPE":0,"NORAD_CAT_ID":68698,"ELEMENT_SET_NO":999,"REV_AT_EPOCH":1395,"BSTAR":0.00016066728,"MEAN_MOTION_DOT":0.00002474,"MEAN_MOTION_DDOT":0}]}
